STARLINK-31179          
1 58750U 24005Y   26068.80952140  .00001223  00000+0  55251-4 0  9996
2 58750  43.0036 218.9351 0000717 263.6598  96.4172 15.26735865120466
FLOCK 4G-34             
1 62650U 25009AT  26068.73202491  .00013063  00000+0  49338-3 0  9997
2 62650  97.4004 151.0149 0000674 348.8280  11.2944 15.27131464 63729
